{
  "norad_id": 53701,
  "name": "STARLINK-4711",
  "history": [
    {
      "epoch": "2026-03-28T22:12:54.932256",
      "apogee_km": 540.6409089838207,
      "perigee_km": 538.8574779231485,
      "latitude_deg": 29.539361303501494,
      "longitude_deg": -1.0389641600195318,
      "semi_major_axis_km": 6917.886193453484,
      "eccentricity": 0.0001289,
      "inclination_deg": 53.2157,
      "raan_deg": 157.3563,
      "arg_perigee_deg": 89.7271,
      "mean_anomaly_deg": 270.3868,
      "mean_motion_rev_day": 15.08838101
    }
  ]
}